BRAC ONNESHA            
1 42823U 98067MX  18093.21069268  .00019258  00000-0  20157-3 0  9997
2 42823  51.6383  21.7992 0003971 259.6239 100.4308 15.64447576 42082
NIGERIAEDUSAT-1         
1 42824U 98067MY  18093.22662370  .00018910  00000-0  19916-3 0  9997
2 42824  51.6388  21.9174 0003875 260.3356  99.7201 15.64302893 42077
CORVUS BC2              
1 42846U 17042X   18093.68658742  .00000311  00000-0  36143-4 0  9991
2 42846  97.6031 359.2254 0011189  85.1825 275.0671 14.91783347 39266
CORVUS BC1              
1 42847U 17042Y   18093.53505178  .00000231  00000-0  28170-4 0  9992
2 42847  97.6032 359.1175 0010890  85.4039 274.8424 14.91882005 39238
SILU-1 (SILKROAD 1)     
1 42903U 17021F   18093.78509647  .00020537  00000-0  18050-3 0  9990
2 42903  42.7784  57.8233 0009417 143.3638 289.6556 15.68328648 38237
MIRATA                  
1 43015U 17073C   18093.48483265  .00000740  00000-0  63742-4 0  9999
2 43015  97.7005  27.6725 0259402 154.4106 207.0214 14.77910980 20100
ASTERIA                 
1 43020U 98067NH  18093.82610915  .00012967  00000-0  17895-3 0  9990
2 43020  51.6418  27.4475 0001589 242.1180 117.9651 15.57552204 20891
DELLINGR (RBLE)         
1 43021U 98067NJ  18093.80826565  .00007276  00000-0  10745-3 0  9993
2 43021  51.6408  28.0708 0001511 234.1259 125.9592 15.56500151 20885
TECHEDSAT 6             
1 43026U 98067NK  18093.81555050  .00161261  00000-0  10452-2 0  9996
2 43026  51.6330  20.5737 0003455 164.5972 195.5133 15.74997027 20886
OSIRIS-3U               
1 43027U 98067NL  18093.82945253  .00023324  00000-0  28335-3 0  9993
2 43027  51.6397  25.9603 0002487 201.8075 158.2813 15.60463183 20791
AEROCUBE 7B             
1 43042U 17071F   18093.49222163  .00002931  00000-0  86583-4 0  9998
2 43042  51.6399  45.2812 0005413   2.7264 357.3749 15.38347479 18103
AEROCUBE 7C             
1 43043U 17071G   18093.29668001  .00002969  00000-0  87611-4 0  9996
2 43043  51.6401  46.2278 0005383   3.0039 357.0977 15.38341429 18047
CHEFSAT                 
1 43044U 17071H   18093.40600704  .00006200  00000-0  16867-3 0  9992
2 43044  51.6405  45.4648 0005427   0.4593 359.6395 15.38875522 18069
ASGARDIA 1              
1 43049U 17071N   18093.28418336  .00003165  00000-0  92252-4 0  9991
2 43049  51.6405  46.1478 0003022  26.9280 333.1861 15.38489629 18040
ISARA                   
1 43050U 17071P   18093.46760443  .00005574  00000-0  15291-3 0  9995
2 43050  51.6403  45.1279 0002990  24.2465 335.8659 15.38833214 18066
FAUNA                   
1 43052U 17071R   18093.73313432  .00003898  00000-0  11086-3 0  9994
2 43052  51.6406  43.9006 0002911  25.3313 334.7813 15.38595638 18102
CORVUS BC3              
1 43118U 18004H   18093.46444832  .00000726  00000-0  34799-4 0  9997
2 43118  97.5413 155.8796 0010655   5.5734 354.5618 15.22105486 12346
MICROMAS-2A             
1 43131U 18004W   18093.25080326  .00001623  00000-0  73109-4 0  9998
2 43131  97.5419 155.7084 0009924  10.3730 349.7709 15.22500198 12316
GOMX4-B                 
1 43196U 18015E   18093.59782660  .00000506  00000-0  24069-4 0  9998
2 43196  97.3337 224.1308 0021313  62.3886 297.9510 15.23448216  9176
GOMX4-A                 
1 43197U 18015F   18093.75070605  .00000461  00000-0  22118-4 0  9999
2 43197  97.3337 224.2753 0021218  62.0240  47.5842 15.23573358  9204
